ADRAS-J                 
1 58992U 24034A   24104.93362191  .00005315  00000+0  50518-3 0  9996
2 58992  98.2078  75.0959 0042149 259.6199 100.0267 14.93267497  8270
